{
  "type": "FeatureCollection",
  "features": [
    {
      "type": "Feature",
      "properties": {
        "norad_id": 2807,
        "name": "OPS 7218 (TRANSIT 16)",
        "group": "nnss",
        "lat": 63.48231193502028,
        "lon": 173.25483829139415,
        "alt_km": 1047.3759695145336,
        "timestamp": "2025-12-15T22:44:29.196239+00:00",
        "meta_object_name": "OPS 7218 (TRANSIT 16)",
        "meta_object_id": "1967-048A",
        "meta_epoch": "2025-12-15T06:13:12.072000",
        "meta_mean_motion": 13.50722677,
        "meta_eccentricity": 0.0022052,
        "meta_inclination": 89.6733,
        "meta_ra_of_asc_node": 353.9327,
        "meta_arg_of_pericenter": 107.3623,
        "meta_mean_anomaly": 263.6707,
        "meta_ephemeris_type": 0,
        "meta_classification_type": "U",
        "meta_norad_cat_id": 2807,
        "meta_element_set_no": 999,
        "meta_rev_at_epoch": 88310,
        "meta_bstar": 0.00017028119,
        "meta_mean_motion_dot": 1.2e-06,
        "meta_mean_motion_ddot": 0,
        "tle_line1": "1 02807U 67048A   25349.25916750  .00000120  00000+0  17028-3 0  9993",
        "tle_line2": "2 02807  89.6733 353.9327 0022052 107.3623 263.6707 13.50722677883101"
      },
      "geometry": {
        "type": "Point",
        "coordinates": [
          173.25483829139415,
          63.48231193502028
        ]
      }
    },
    {
      "type": "Feature",
      "properties": {
        "norad_id": 2965,
        "name": "OPS 4947 (TRANSIT 17)",
        "group": "nnss",
        "lat": -32.396758373318356,
        "lon": -155.3322483728941,
        "alt_km": 1032.0573843967559,
        "timestamp": "2025-12-15T22:44:29.196262+00:00",
        "meta_object_name": "OPS 4947 (TRANSIT 17)",
        "meta_object_id": "1967-092A",
        "meta_epoch": "2025-12-15T04:16:43.461984",
        "meta_mean_motion": 13.53454055,
        "meta_eccentricity": 0.00463327,
        "meta_inclination": 89.2494,
        "meta_ra_of_asc_node": 24.2497,
        "meta_arg_of_pericenter": 227.1843,
        "meta_mean_anomaly": 199.2003,
        "meta_ephemeris_type": 0,
        "meta_classification_type": "U",
        "meta_norad_cat_id": 2965,
        "meta_element_set_no": 999,
        "meta_rev_at_epoch": 87130,
        "meta_bstar": 0.00020710086,
        "meta_mean_motion_dot": 1.51e-06,
        "meta_mean_motion_ddot": 0,
        "tle_line1": "1 02965U 67092A   25349.17828081  .00000151  00000+0  20710-3 0  9993",
        "tle_line2": "2 02965  89.2494  24.2497 0046332 227.1843 199.2003 13.53454055871301"
      },
      "geometry": {
        "type": "Point",
        "coordinates": [
          -155.3322483728941,
          -32.396758373318356
        ]
      }
    },
    {
      "type": "Feature",
      "properties": {
        "norad_id": 3133,
        "name": "OPS 7034 (TRANSIT 18)",
        "group": "nnss",
        "lat": -20.289218674266124,
        "lon": -86.34174824261846,
        "alt_km": 1126.882998291655,
        "timestamp": "2025-12-15T22:44:29.196276+00:00",
        "meta_object_name": "OPS 7034 (TRANSIT 18)",
        "meta_object_id": "1968-012A",
        "meta_epoch": "2025-12-15T09:13:27.443424",
        "meta_mean_motion": 13.5156628,
        "meta_eccentricity": 0.00741143,
        "meta_inclination": 90.028,
        "meta_ra_of_asc_node": 273.6463,
        "meta_arg_of_pericenter": 161.483,
        "meta_mean_anomaly": 319.5718,
        "meta_ephemeris_type": 0,
        "meta_classification_type": "U",
        "meta_norad_cat_id": 3133,
        "meta_element_set_no": 999,
        "meta_rev_at_epoch": 56954,
        "meta_bstar": 0.00015545917,
        "meta_mean_motion_dot": 1.13e-06,
        "meta_mean_motion_ddot": 0,
        "tle_line1": "1 03133U 68012A   25349.38434541  .00000113  00000+0  15546-3 0  9990",
        "tle_line2": "2 03133  90.0280 273.6463 0074114 161.4830 319.5718 13.51566280569542"
      },
      "geometry": {
        "type": "Point",
        "coordinates": [
          -86.34174824261846,
          -20.289218674266124
        ]
      }
    },
    {
      "type": "Feature",
      "properties": {
        "norad_id": 4507,
        "name": "NNSS 19 (TRANSIT 19)",
        "group": "nnss",
        "lat": -50.86451913043652,
        "lon": -125.45722073316524,
        "alt_km": 959.1851676579736,
        "timestamp": "2025-12-15T22:44:29.196288+00:00",
        "meta_object_name": "NNSS 19 (TRANSIT 19)",
        "meta_object_id": "1970-067A",
        "meta_epoch": "2025-12-15T03:26:21.774912",
        "meta_mean_motion": 13.51315578,
        "meta_eccentricity": 0.01704152,
        "meta_inclination": 90.0054,
        "meta_ra_of_asc_node": 234.5357,
        "meta_arg_of_pericenter": 286.3512,
        "meta_mean_anomaly": 71.8961,
        "meta_ephemeris_type": 0,
        "meta_classification_type": "U",
        "meta_norad_cat_id": 4507,
        "meta_element_set_no": 999,
        "meta_rev_at_epoch": 72254,
        "meta_bstar": 0.00013748227,
        "meta_mean_motion_dot": 1.05e-06,
        "meta_mean_motion_ddot": 0,
        "tle_line1": "1 04507U 70067A   25349.14330758  .00000105  00000+0  13748-3 0  9991",
        "tle_line2": "2 04507  90.0054 234.5357 0170415 286.3512  71.8961 13.51315578722541"
      },
      "geometry": {
        "type": "Point",
        "coordinates": [
          -125.45722073316524,
          -50.86451913043652
        ]
      }
    },
    {
      "type": "Feature",
      "properties": {
        "norad_id": 6909,
        "name": "NNSS 20 (TRANSIT 20)",
        "group": "nnss",
        "lat": -72.973872152304,
        "lon": 75.47592738259901,
        "alt_km": 1117.0062996297092,
        "timestamp": "2025-12-15T22:44:29.196299+00:00",
        "meta_object_name": "NNSS 20 (TRANSIT 20)",
        "meta_object_id": "1973-081A",
        "meta_epoch": "2025-12-15T07:30:39.006144",
        "meta_mean_motion": 13.7143545,
        "meta_eccentricity": 0.01566029,
        "meta_inclination": 89.8562,
        "meta_ra_of_asc_node": 255.0156,
        "meta_arg_of_pericenter": 70.7019,
        "meta_mean_anomaly": 291.1006,
        "meta_ephemeris_type": 0,
        "meta_classification_type": "U",
        "meta_norad_cat_id": 6909,
        "meta_element_set_no": 999,
        "meta_rev_at_epoch": 80396,
        "meta_bstar": 0.00025143528,
        "meta_mean_motion_dot": 2.58e-06,
        "meta_mean_motion_ddot": 0,
        "tle_line1": "1 06909U 73081A   25349.31295146  .00000258  00000+0  25144-3 0  9990",
        "tle_line2": "2 06909  89.8562 255.0156 0156602  70.7019 291.1006 13.71435450803960"
      },
      "geometry": {
        "type": "Point",
        "coordinates": [
          75.47592738259901,
          -72.973872152304
        ]
      }
    },
    {
      "type": "Feature",
      "properties": {
        "norad_id": 10457,
        "name": "TRANSAT",
        "group": "nnss",
        "lat": -73.7135004651154,
        "lon": 77.27818052354297,
        "alt_km": 1088.8251143252573,
        "timestamp": "2025-12-15T22:44:29.196310+00:00",
        "meta_object_name": "TRANSAT",
        "meta_object_id": "1977-106A",
        "meta_epoch": "2025-12-15T07:23:38.930208",
        "meta_mean_motion": 13.48944004,
        "meta_eccentricity": 0.00256436,
        "meta_inclination": 89.6481,
        "meta_ra_of_asc_node": 78.5061,
        "meta_arg_of_pericenter": 182.0497,
        "meta_mean_anomaly": 240.4341,
        "meta_ephemeris_type": 0,
        "meta_classification_type": "U",
        "meta_norad_cat_id": 10457,
        "meta_element_set_no": 999,
        "meta_rev_at_epoch": 36778,
        "meta_bstar": 0.00010792268,
        "meta_mean_motion_dot": 7.8e-07,
        "meta_mean_motion_ddot": 0,
        "tle_line1": "1 10457U 77106A   25349.30808947  .00000078  00000+0  10792-3 0  9996",
        "tle_line2": "2 10457  89.6481  78.5061 0025643 182.0497 240.4341 13.48944004367789"
      },
      "geometry": {
        "type": "Point",
        "coordinates": [
          77.27818052354297,
          -73.7135004651154
        ]
      }
    },
    {
      "type": "Feature",
      "properties": {
        "norad_id": 12458,
        "name": "NOVA 1",
        "group": "nnss",
        "lat": -71.70043724656962,
        "lon": -88.21427699715562,
        "alt_km": 1190.5787353674577,
        "timestamp": "2025-12-15T22:44:29.196321+00:00",
        "meta_object_name": "NOVA 1",
        "meta_object_id": "1981-044A",
        "meta_epoch": "2025-12-15T09:07:10.981344",
        "meta_mean_motion": 13.23278769,
        "meta_eccentricity": 0.00159301,
        "meta_inclination": 89.8526,
        "meta_ra_of_asc_node": 91.3478,
        "meta_arg_of_pericenter": 97.5257,
        "meta_mean_anomaly": 331.8257,
        "meta_ephemeris_type": 0,
        "meta_classification_type": "U",
        "meta_norad_cat_id": 12458,
        "meta_element_set_no": 999,
        "meta_rev_at_epoch": 15221,
        "meta_bstar": 7.1490958e-05,
        "meta_mean_motion_dot": 3.9e-07,
        "meta_mean_motion_ddot": 0,
        "tle_line1": "1 12458U 81044A   25349.37998821  .00000039  00000+0  71491-4 0  9994",
        "tle_line2": "2 12458  89.8526  91.3478 0015930  97.5257 331.8257 13.23278769152213"
      },
      "geometry": {
        "type": "Point",
        "coordinates": [
          -88.21427699715562,
          -71.70043724656962
        ]
      }
    }
  ]
}